NORAD_CAT_ID,OBJECT_NAME,OBJECT_TYPE,EPOCH,MEAN_MOTION,ECCENTRICITY,INCLINATION,RA_OF_ASC_NODE,ARG_OF_PERICENTER,MEAN_ANOMALY,BSTAR,MEAN_MOTION_DOT,MEAN_MOTION_DDOT,TLE_LINE0,TLE_LINE1,TLE_LINE2,SEMIMAJOR_AXIS,PERIOD,APOGEE,PERIGEE,DECAYED
52649.0,STARLINK-3868,PAYLOAD,2024-03-08 16:03:21,15.08849243,0.0002226,53.2167,300.6537,84.9446,275.18,-3.6863e-05,-8.75e-06,0.0,0 STARLINK-3868,1 52649U 22052BD  24068.66899912 -.00000875  00000-0 -36863-4 0  9999,2 52649  53.2167 300.6537 0002226  84.9446 275.1800 15.08849243100786,6917.852,95.437,541.257,538.177,0.0
52649.0,STARLINK-3868,PAYLOAD,2024-03-09 07:57:13,15.08825387,9.64e-05,53.2164,297.6797,94.6217,265.4885,-0.00019758,-3.43e-05,0.0,0 STARLINK-3868,1 52649U 22052BD  24069.33141105 -.00003430  00000-0 -19758-3 0  9991,2 52649  53.2164 297.6797 0000964  94.6217 265.4885 15.08825387101258,6917.925,95.438,540.457,539.123,0.0
52649.0,STARLINK-3868,PAYLOAD,2024-03-09 15:54:10,15.08821922,9.22e-05,53.2169,296.1906,89.6865,270.4233,-8.9747e-05,-1.715e-05,0.0,0 STARLINK-3868,1 52649U 22052BD  24069.66261725 -.00001715  00000-0 -89747-4 0  9998,2 52649  53.2169 296.1906 0000922  89.6865 270.4233 15.08821922100934,6917.936,95.439,540.438,539.163,0.0
52649.0,STARLINK-3868,PAYLOAD,2024-03-10 07:48:01,15.08842238,8.53e-05,53.2168,293.2198,99.9767,260.1322,0.00038954,5.918e-05,0.0,0 STARLINK-3868,1 52649U 22052BD  24070.32501395  .00005918  00000-0  38954-3 0  9993,2 52649  53.2168 293.2198 0000853  99.9767 260.1322 15.08842238101403,6917.874,95.437,540.329,539.148,0.0
52649.0,STARLINK-3868,PAYLOAD,2024-03-10 14:09:34,15.08839152,0.0001054,53.2124,292.0295,81.5053,278.6058,0.00040535,6.169e-05,0.0,0 STARLINK-3868,1 52649U 22052BD  24070.58997726  .00006169  00000-0  40535-3 0  9995,2 52649  53.2124 292.0295 0001054  81.5053 278.6058 15.08839152101073,6917.883,95.438,540.477,539.019,0.0
52649.0,STARLINK-3868,PAYLOAD,2024-03-10 22:06:29,15.08858134,0.0001273,53.2148,290.5449,87.3325,272.7813,0.00066053,0.00010245,0.0,0 STARLINK-3868,1 52649U 22052BD  24070.92117290  .00010245  00000-0  66053-3 0  9996,2 52649  53.2148 290.5449 0001273  87.3325 272.7813 15.08858134101123,6917.825,95.436,540.571,538.809,0.0
52649.0,STARLINK-3868,PAYLOAD,2024-03-11 07:38:47,15.08866109,0.0001312,53.2149,288.7609,88.9015,271.2128,0.00057973,8.957e-05,0.0,0 STARLINK-3868,1 52649U 22052BD  24071.31860606  .00008957  00000-0  57973-3 0  9994,2 52649  53.2149 288.7609 0001312  88.9015 271.2128 15.08866109101188,6917.801,95.436,540.573,538.758,0.0
52649.0,STARLINK-3868,PAYLOAD,2024-03-11 20:21:52,15.08857291,0.0001921,53.2147,286.3818,88.0335,272.0877,0.00027541,4.1e-05,0.0,0 STARLINK-3868,1 52649U 22052BD  24071.84852479  .00004100  00000-0  27541-3 0  9995,2 52649  53.2147 286.3818 0001921  88.0335 272.0877 15.08857291101636,6917.828,95.436,541.021,538.364,0.0
52649.0,STARLINK-3868,PAYLOAD,2024-03-12 07:29:34,15.0885073,0.0001387,53.2134,284.298,92.3924,267.7227,0.00040858,6.222e-05,0.0,0 STARLINK-3868,1 52649U 22052BD  24072.31220304  .00006222  00000-0  40858-3 0  9997,2 52649  53.2134 284.2980 0001387  92.3924 267.7227 15.08850730101706,6917.848,95.437,540.672,538.753,0.0
52649.0,STARLINK-3868,PAYLOAD,2024-03-12 20:12:39,15.08844151,0.0001707,53.2131,281.9191,90.4313,269.6875,0.00019478,2.814e-05,0.0,0 STARLINK-3868,1 52649U 22052BD  24072.84212409  .00002814  00000-0  19478-3 0  9999,2 52649  53.2131 281.9191 0001707  90.4313 269.6875 15.08844151101416,6917.868,95.437,540.914,538.552,0.0
52649.0,STARLINK-3868,PAYLOAD,2024-03-12 23:23:25,15.08843957,0.0001505,53.2151,281.3239,93.6694,266.447,5.3792e-05,5.68e-06,0.0,0 STARLINK-3868,1 52649U 22052BD  24072.97460396  .00000568  00000-0  53792-4 0  9995,2 52649  53.2151 281.3239 0001505  93.6694 266.4470 15.08843957101800,6917.868,95.437,540.774,538.692,0.0
52649.0,STARLINK-3868,PAYLOAD,2024-03-13 07:20:21,15.08846435,0.0001494,53.2156,279.8374,97.5426,262.5736,0.00010673,1.411e-05,0.0,0 STARLINK-3868,1 52649U 22052BD  24073.30580264  .00001411  00000-0  10673-3 0  9998,2 52649  53.2156 279.8374 0001494  97.5426 262.5736 15.08846435101480,6917.861,95.437,540.759,538.692,0.0
52649.0,STARLINK-3868,PAYLOAD,2024-03-14 19:54:13,15.08840607,0.0001509,53.2175,272.997,101.5776,258.5386,8.1093e-05,1.003e-05,0.0,0 STARLINK-3868,1 52649U 22052BD  24074.82932557  .00001003  00000-0  81093-4 0  9994,2 52649  53.2175 272.9970 0001509 101.5776 258.5386 15.08840607102086,6917.879,95.438,540.787,538.7,0.0
52649.0,STARLINK-3868,PAYLOAD,2024-03-15 13:23:28,15.08837499,0.000118,53.2156,269.7256,107.4025,252.7096,7.11e-05,8.44e-06,0.0,0 STARLINK-3868,1 52649U 22052BD  24075.55796657  .00000844  00000-0  71100-4 0  9994,2 52649  53.2156 269.7256 0001180 107.4025 252.7096 15.08837499101823,6917.888,95.438,540.569,538.937,0.0
52649.0,STARLINK-3868,PAYLOAD,2024-03-16 11:38:52,15.08836076,0.0001176,53.2154,265.5619,117.3772,242.734,9.3812e-05,1.205e-05,0.0,0 STARLINK-3868,1 52649U 22052BD  24076.48532814  .00001205  00000-0  93812-4 0  9996,2 52649  53.2154 265.5619 0001176 117.3772 242.7340 15.08836076102330,6917.892,95.438,540.571,538.944,0.0
52649.0,STARLINK-3868,PAYLOAD,2024-03-16 13:14:15,15.08836375,0.0001167,53.2154,265.2647,115.4792,244.6321,9.0275e-05,1.149e-05,0.0,0 STARLINK-3868,1 52649U 22052BD  24076.55156817  .00001149  00000-0  90275-4 0  9996,2 52649  53.2154 265.2647 0001167 115.4792 244.6321 15.08836375101970,6917.891,95.438,540.564,538.949,0.0
52649.0,STARLINK-3868,PAYLOAD,2024-03-16 19:35:48,15.08834481,0.0001241,53.2163,264.0761,103.8781,256.2349,7.5499e-05,9.14e-06,0.0,0 STARLINK-3868,1 52649U 22052BD  24076.81653247  .00000914  00000-0  75499-4 0  9994,2 52649  53.2163 264.0761 0001241 103.8781 256.2349 15.08834481102017,6917.897,95.438,540.621,538.904,0.0
52649.0,STARLINK-3868,PAYLOAD,2024-03-17 11:29:39,15.08836435,0.0001259,53.216,261.1023,105.8296,254.2835,7.9408e-05,9.76e-06,0.0,0 STARLINK-3868,1 52649U 22052BD  24077.47893321  .00000976  00000-0  79408-4 0  9998,2 52649  53.2160 261.1023 0001259 105.8296 254.2835 15.08836435102115,6917.891,95.438,540.627,538.885,0.0
52649.0,STARLINK-3868,PAYLOAD,2024-03-17 19:26:35,15.08841989,0.0001227,53.2163,259.6165,97.5057,262.6075,0.00011682,1.572e-05,0.0,0 STARLINK-3868,1 52649U 22052BD  24077.81012923  .00001572  00000-0  11682-3 0  9999,2 52649  53.2163 259.6165 0001227  97.5057 262.6075 15.08841989102539,6917.874,95.437,540.588,538.89,0.0
52649.0,STARLINK-3868,PAYLOAD,2024-03-17 21:01:58,15.08843124,0.0001286,53.2164,259.319,104.0068,256.1067,0.00012583,1.715e-05,0.0,0 STARLINK-3868,1 52649U 22052BD  24077.87636812  .00001715  00000-0  12583-3 0  9994,2 52649  53.2164 259.3190 0001286 104.0068 256.1067 15.08843124102178,6917.871,95.437,540.625,538.846,0.0
52649.0,STARLINK-3868,PAYLOAD,2024-03-18 11:20:26,15.08836627,0.0001379,53.2169,256.6434,105.4736,254.6408,0.00012322,1.673e-05,0.0,0 STARLINK-3868,1 52649U 22052BD  24078.47253303  .00001673  00000-0  12322-3 0  9995,2 52649  53.2169 256.6434 0001379 105.4736 254.6408 15.08836627102637,6917.891,95.438,540.71,538.802,0.0
52649.0,STARLINK-3868,PAYLOAD,2024-03-18 20:52:45,15.08836994,0.0001315,53.2164,254.8586,100.3967,259.7174,0.00011151,1.487e-05,0.0,0 STARLINK-3868,1 52649U 22052BD  24078.86997472  .00001487  00000-0  11151-3 0  9992,2 52649  53.2164 254.8586 0001315 100.3967 259.7174 15.08836994102329,6917.89,95.438,540.664,538.845,0.0
52649.0,STARLINK-3868,PAYLOAD,2024-03-19 11:11:13,15.08846518,0.0001348,53.2161,252.1817,95.8616,264.253,9.5259e-05,1.229e-05,0.0,0 STARLINK-3868,1 52649U 22052BD  24079.46613016  .00001229  00000-0  95259-4 0  9994,2 52649  53.2161 252.1817 0001348  95.8616 264.2530 15.08846518102419,6917.86,95.437,540.658,538.793,0.0
52649.0,STARLINK-3868,PAYLOAD,2024-03-19 19:08:08,15.08851483,0.0001352,53.2166,250.6954,94.295,265.8196,0.0001336,1.84e-05,0.0,0 STARLINK-3868,1 52649U 22052BD  24079.79732519  .00001840  00000-0  13360-3 0  9991,2 52649  53.2166 250.6954 0001352  94.2950 265.8196 15.08851483102836,6917.845,95.437,540.646,538.775,0.0
52649.0,STARLINK-3868,PAYLOAD,2024-03-20 11:02:00,15.08842278,0.0001218,53.2164,247.7237,90.6132,269.5,0.00010429,1.372e-05,0.0,0 STARLINK-3868,1 52649U 22052BD  24080.45973062  .00001372  00000-0  10429-3 0  9999,2 52649  53.2164 247.7237 0001218  90.6132 269.5000 15.08842278102936,6917.873,95.437,540.581,538.896,0.0
52649.0,STARLINK-3868,PAYLOAD,2024-03-20 17:23:33,15.08835966,0.0001414,53.2161,246.5331,84.5213,275.5941,2.5161e-05,1.12e-06,0.0,0 STARLINK-3868,1 52649U 22052BD  24080.72469533  .00000112  00000-0  25161-4 0  9993,2 52649  53.2161 246.5331 0001414  84.5213 275.5941 15.08835966102976,6917.893,95.438,540.736,538.78,0.0
52649.0,STARLINK-3868,PAYLOAD,2024-03-21 14:03:34,15.08841071,0.0001416,53.2164,242.6643,115.096,245.018,2.8087e-05,1.59e-06,0.0,0 STARLINK-3868,1 52649U 22052BD  24081.58581259  .00000159  00000-0  28087-4 0  9999,2 52649  53.2164 242.6643 0001416 115.0960 245.0180 15.08841071102738,6917.877,95.437,540.722,538.763,0.0
52649.0,STARLINK-3868,PAYLOAD,2024-03-21 17:14:20,15.08848644,0.0001365,53.2177,242.0707,102.1469,257.9676,4.2875e-05,3.95e-06,0.0,0 STARLINK-3868,1 52649U 22052BD  24081.71828891  .00000395  00000-0  42875-4 0  9993,2 52649  53.2177 242.0707 0001365 102.1469 257.9676 15.08848644103120,6917.854,95.437,540.663,538.775,0.0
52649.0,STARLINK-3868,PAYLOAD,2024-03-22 13:54:21,15.08842906,0.0001478,53.2172,238.2036,108.132,251.9833,0.00016344,2.314e-05,0.0,0 STARLINK-3868,1 52649U 22052BD  24082.57941078  .00002314  00000-0  16344-3 0  9995,2 52649  53.2172 238.2036 0001478 108.1320 251.9833 15.08842906102880,6917.872,95.437,540.759,538.714,0.0
52649.0,STARLINK-3868,PAYLOAD,2024-03-22 17:05:07,15.08843356,0.0001471,53.2169,237.6092,106.3575,253.7579,0.00016256,2.3e-05,0.0,0 STARLINK-3868,1 52649U 22052BD  24082.71189047  .00002300  00000-0  16256-3 0  9998,2 52649  53.2169 237.6092 0001471 106.3575 253.7579 15.08843356103277,6917.87,95.437,540.753,538.718,0.0
